{
  "type": "FeatureCollection",
  "features": [
    {
      "type": "Feature",
      "properties": {
        "norad_id": 66856,
        "name": "STARLINK-36072",
        "group": "last-30-days",
        "lat": 20.535044372405864,
        "lon": -162.76513066496574,
        "alt_km": 411.9321708877733,
        "timestamp": "2025-12-26T04:40:04.512089+00:00",
        "meta_object_name": "STARLINK-36072",
        "meta_object_id": "2025-281J",
        "meta_epoch": "2025-12-25T22:00:01.999584",
        "meta_mean_motion": 15.50774175,
        "meta_eccentricity": 0.00010898,
        "meta_inclination": 43.0004,
        "meta_ra_of_asc_node": 42.5619,
        "meta_arg_of_pericenter": 241.2244,
        "meta_mean_anomaly": 155.0734,
        "meta_ephemeris_type": 0,
        "meta_classification_type": "U",
        "meta_norad_cat_id": 66856,
        "meta_element_set_no": 999,
        "meta_rev_at_epoch": 350,
        "meta_bstar": -0.0072168175,
        "meta_mean_motion_dot": -0.00405323,
        "meta_mean_motion_ddot": 0,
        "tle_line1": "1 66856U 25281J   25359.91668981 -.00405323  00000+0 -72168-2 0  9995",
        "tle_line2": "2 66856  43.0004  42.5619 0001089 241.2244 155.0734 15.50774175  3503"
      },
      "geometry": {
        "type": "Point",
        "coordinates": [
          -162.76513066496574,
          20.535044372405864
        ]
      }
    },
    {
      "type": "Feature",
      "properties": {
        "norad_id": 66857,
        "name": "STARLINK-36083",
        "group": "last-30-days",
        "lat": 19.33105937609163,
        "lon": -161.18277897212457,
        "alt_km": 412.07307104731444,
        "timestamp": "2025-12-26T04:40:04.512100+00:00",
        "meta_object_name": "STARLINK-36083",
        "meta_object_id": "2025-281K",
        "meta_epoch": "2025-12-25T22:00:01.999584",
        "meta_mean_motion": 15.5077121,
        "meta_eccentricity": 0.00012311,
        "meta_inclination": 43.0004,
        "meta_ra_of_asc_node": 42.557,
        "meta_arg_of_pericenter": 238.7821,
        "meta_mean_anomaly": 159.4361,
        "meta_ephemeris_type": 0,
        "meta_classification_type": "U",
        "meta_norad_cat_id": 66857,
        "meta_element_set_no": 999,
        "meta_rev_at_epoch": 350,
        "meta_bstar": -0.0072194655,
        "meta_mean_motion_dot": -0.00405432,
        "meta_mean_motion_ddot": 0,
        "tle_line1": "1 66857U 25281K   25359.91668981 -.00405432  00000+0 -72195-2 0  9997",
        "tle_line2": "2 66857  43.0004  42.5570 0001231 238.7821 159.4361 15.50771210  3502"
      },
      "geometry": {
        "type": "Point",
        "coordinates": [
          -161.18277897212457,
          19.33105937609163
        ]
      }
    },
    {
      "type": "Feature",
      "properties": {
        "norad_id": 66858,
        "name": "STARLINK-35118",
        "group": "last-30-days",
        "lat": 18.112076043705216,
        "lon": -159.6221408400831,
        "alt_km": 412.2034146055248,
        "timestamp": "2025-12-26T04:40:04.512111+00:00",
        "meta_object_name": "STARLINK-35118",
        "meta_object_id": "2025-281L",
        "meta_epoch": "2025-12-25T22:00:01.999584",
        "meta_mean_motion": 15.50779246,
        "meta_eccentricity": 0.00013497,
        "meta_inclination": 43.0004,
        "meta_ra_of_asc_node": 42.5519,
        "meta_arg_of_pericenter": 236.5233,
        "meta_mean_anomaly": 163.6118,
        "meta_ephemeris_type": 0,
        "meta_classification_type": "U",
        "meta_norad_cat_id": 66858,
        "meta_element_set_no": 999,
        "meta_rev_at_epoch": 329,
        "meta_bstar": -0.0075574225,
        "meta_mean_motion_dot": -0.00423558,
        "meta_mean_motion_ddot": 0,
        "tle_line1": "1 66858U 25281L   25359.91668981 -.00423558  00000+0 -75574-2 0  9991",
        "tle_line2": "2 66858  43.0004  42.5519 0001349 236.5233 163.6118 15.50779246  3299"
      },
      "geometry": {
        "type": "Point",
        "coordinates": [
          -159.6221408400831,
          18.112076043705216
        ]
      }
    },
    {
      "type": "Feature",
      "properties": {
        "norad_id": 66859,
        "name": "STARLINK-35646",
        "group": "last-30-days",
        "lat": 16.872997390390793,
        "lon": -158.07291207499134,
        "alt_km": 412.31627863698577,
        "timestamp": "2025-12-26T04:40:04.512121+00:00",
        "meta_object_name": "STARLINK-35646",
        "meta_object_id": "2025-281M",
        "meta_epoch": "2025-12-25T22:00:01.999584",
        "meta_mean_motion": 15.50781426,
        "meta_eccentricity": 0.00012707,
        "meta_inclination": 43.0003,
        "meta_ra_of_asc_node": 42.5478,
        "meta_arg_of_pericenter": 239.3776,
        "meta_mean_anomaly": 162.6674,
        "meta_ephemeris_type": 0,
        "meta_classification_type": "U",
        "meta_norad_cat_id": 66859,
        "meta_element_set_no": 999,
        "meta_rev_at_epoch": 350,
        "meta_bstar": -0.0065187682,
        "meta_mean_motion_dot": -0.00367983,
        "meta_mean_motion_ddot": 0,
        "tle_line1": "1 66859U 25281M   25359.91668981 -.00367983  00000+0 -65188-2 0  9991",
        "tle_line2": "2 66859  43.0003  42.5478 0001270 239.3776 162.6674 15.50781426  3502"
      },
      "geometry": {
        "type": "Point",
        "coordinates": [
          -158.07291207499134,
          16.872997390390793
        ]
      }
    },
    {
      "type": "Feature",
      "properties": {
        "norad_id": 66860,
        "name": "STARLINK-35987",
        "group": "last-30-days",
        "lat": 10.56524817121182,
        "lon": -150.64775169409563,
        "alt_km": 413.6018777408626,
        "timestamp": "2025-12-26T04:40:04.512136+00:00",
        "meta_object_name": "STARLINK-35987",
        "meta_object_id": "2025-281N",
        "meta_epoch": "2025-12-25T22:00:01.999584",
        "meta_mean_motion": 15.50801313,
        "meta_eccentricity": 0.00015391,
        "meta_inclination": 43.0004,
        "meta_ra_of_asc_node": 42.5239,
        "meta_arg_of_pericenter": 266.795,
        "meta_mean_anomaly": 144.8327,
        "meta_ephemeris_type": 0,
        "meta_classification_type": "U",
        "meta_norad_cat_id": 66860,
        "meta_element_set_no": 999,
        "meta_rev_at_epoch": 350,
        "meta_bstar": -0.0070998867,
        "meta_mean_motion_dot": -0.00399474,
        "meta_mean_motion_ddot": 0,
        "tle_line1": "1 66860U 25281N   25359.91668981 -.00399474  00000+0 -70999-2 0  9999",
        "tle_line2": "2 66860  43.0004  42.5239 0001539 266.7950 144.8327 15.50801313  3501"
      },
      "geometry": {
        "type": "Point",
        "coordinates": [
          -150.64775169409563,
          10.56524817121182
        ]
      }
    },
    {
      "type": "Feature",
      "properties": {
        "norad_id": 66861,
        "name": "STARLINK-35991",
        "group": "last-30-days",
        "lat": 14.376937962128784,
        "lon": -155.05262918790365,
        "alt_km": 412.9030592933914,
        "timestamp": "2025-12-26T04:40:04.512147+00:00",
        "meta_object_name": "STARLINK-35991",
        "meta_object_id": "2025-281P",
        "meta_epoch": "2025-12-25T22:00:01.999584",
        "meta_mean_motion": 15.50773794,
        "meta_eccentricity": 9.959e-05,
        "meta_inclination": 43.0008,
        "meta_ra_of_asc_node": 42.5389,
        "meta_arg_of_pericenter": 257.53,
        "meta_mean_anomaly": 148.3508,
        "meta_ephemeris_type": 0,
        "meta_classification_type": "U",
        "meta_norad_cat_id": 66861,
        "meta_element_set_no": 999,
        "meta_rev_at_epoch": 350,
        "meta_bstar": -0.0062116414,
        "meta_mean_motion_dot": -0.0035129,
        "meta_mean_motion_ddot": 0,
        "tle_line1": "1 66861U 25281P   25359.91668981 -.00351290  00000+0 -62116-2 0  9996",
        "tle_line2": "2 66861  43.0008  42.5389 0000995 257.5300 148.3508 15.50773794  3505"
      },
      "geometry": {
        "type": "Point",
        "coordinates": [
          -155.05262918790365,
          14.376937962128784
        ]
      }
    },
    {
      "type": "Feature",
      "properties": {
        "norad_id": 66862,
        "name": "STARLINK-35974",
        "group": "last-30-days",
        "lat": 15.640102791412568,
        "lon": -156.56615174411894,
        "alt_km": 412.62062876525306,
        "timestamp": "2025-12-26T04:40:04.512157+00:00",
        "meta_object_name": "STARLINK-35974",
        "meta_object_id": "2025-281Q",
        "meta_epoch": "2025-12-25T22:00:01.999584",
        "meta_mean_motion": 15.50774711,
        "meta_eccentricity": 0.00012775,
        "meta_inclination": 43.0006,
        "meta_ra_of_asc_node": 42.5427,
        "meta_arg_of_pericenter": 241.3725,
        "meta_mean_anomaly": 162.5987,
        "meta_ephemeris_type": 0,
        "meta_classification_type": "U",
        "meta_norad_cat_id": 66862,
        "meta_element_set_no": 999,
        "meta_rev_at_epoch": 340,
        "meta_bstar": -0.0075223479,
        "meta_mean_motion_dot": -0.00421623,
        "meta_mean_motion_ddot": 0,
        "tle_line1": "1 66862U 25281Q   25359.91668981 -.00421623  00000+0 -75223-2 0  9998",
        "tle_line2": "2 66862  43.0006  42.5427 0001277 241.3725 162.5987 15.50774711  3401"
      },
      "geometry": {
        "type": "Point",
        "coordinates": [
          -156.56615174411894,
          15.640102791412568
        ]
      }
    }
  ]
}